{
    "links": {
        "self": "http://www.neowsapp.com/rest/v1/neo/3600004?api_key=iIulBulltgU6a56xZRHN4H3l9WmuAYTsLGpBGhQ2"
    },
    "id": "3600004",
    "neo_reference_id": "3600004",
    "name": "(2012 DW43)",
    "designation": "2012 DW43",
    "nasa_jpl_url": "http://ssd.jpl.nasa.gov/sbdb.cgi?sstr=3600004",
    "absolute_magnitude_h": 26.4,
    "estimated_diameter": {
        "kilometers": {
            "estimated_diameter_min": 0.0139493823,
            "estimated_diameter_max": 0.0311917671
        },
        "meters": {
            "estimated_diameter_min": 13.9493822934,
            "estimated_diameter_max": 31.1917670523
        },
        "miles": {
            "estimated_diameter_min": 0.0086677416,
            "estimated_diameter_max": 0.0193816595
        },
        "feet": {
            "estimated_diameter_min": 45.7656914036,
            "estimated_diameter_max": 102.3351970157
        }
    },
    "is_potentially_hazardous_asteroid": false,
    "close_approach_data": [
        {
            "close_approach_date": "2007-10-30",
            "close_approach_date_full": "2007-Oct-30 09:35",
            "epoch_date_close_approach": 1193736900000,
            "relative_velocity": {
                "kilometers_per_second": "15.6994936828",
                "kilometers_per_hour": "56518.1772582402",
                "miles_per_hour": "35118.1974191549"
            },
            "miss_distance": {
                "astronomical": "0.2454304011",
                "lunar": "95.4724260279",
                "kilometers": "36715865.237805657",
                "miles": "22814180.7511537866"
            },
            "orbiting_body": "Earth"
        },
        {
            "close_approach_date": "2012-02-18",
            "close_approach_date_full": "2012-Feb-18 04:41",
            "epoch_date_close_approach": 1329540060000,
            "relative_velocity": {
                "kilometers_per_second": "9.5751802307",
                "kilometers_per_hour": "34470.6488304439",
                "miles_per_hour": "21418.7206580056"
            },
            "miss_distance": {
                "astronomical": "0.021764019",
                "lunar": "8.466203391",
                "kilometers": "3255850.88503953",
                "miles": "2023091.927944314"
            },
            "orbiting_body": "Earth"
        },
        {
            "close_approach_date": "2014-03-10",
            "close_approach_date_full": "2014-Mar-10 21:03",
            "epoch_date_close_approach": 1394485380000,
            "relative_velocity": {
                "kilometers_per_second": "17.5223315653",
                "kilometers_per_hour": "63080.3936350026",
                "miles_per_hour": "39195.7034783715"
            },
            "miss_distance": {
                "astronomical": "0.2702972801",
                "lunar": "105.1456419589",
                "kilometers": "40435897.369753387",
                "miles": "25125701.5313032606"
            },
            "orbiting_body": "Earth"
        }
    ],
    "orbital_data": {
        "orbit_id": "8",
        "orbit_determination_date": "2019-07-19 05:25:36",
        "first_observation_date": "2012-02-26",
        "last_observation_date": "2012-03-02",
        "data_arc_in_days": 5,
        "observations_used": 9,
        "orbit_uncertainty": "8",
        "minimum_orbit_intersection": ".0212643",
        "jupiter_tisserand_invariant": "4.222",
        "epoch_osculation": "2455985.5",
        "eccentricity": ".4404039497255825",
        "semi_major_axis": "1.610715171348546",
        "inclination": "6.911027707269854",
        "ascending_node_longitude": "338.4843114235202",
        "orbital_period": "746.666300888753",
        "perihelion_distance": ".901349848003728",
        "perihelion_argument": "123.9685524067555",
        "aphelion_distance": "2.320080494693364",
        "perihelion_time": "2455939.682833558207",
        "mean_anomaly": "22.09043035612099",
        "mean_motion": ".4821430933356626",
        "equinox": "J2000",
        "orbit_class": {
            "orbit_class_type": "APO",
            "orbit_class_description": "Near-Earth asteroid orbits which cross the Earth’s orbit similar to that of 1862 Apollo",
            "orbit_class_range": "a (semi-major axis) > 1.0 AU; q (perihelion) < 1.017 AU"
        }
    },
    "is_sentry_object": false
}